[{"OBJECT_NAME":"STARLINK-5381","OBJECT_ID":"2022-177J","EPOCH":"2026-03-09T04:59:00.420864","MEAN_MOTION":15.02534155,"ECCENTRICITY":0.00010759,"INCLINATION":43.0037,"RA_OF_ASC_NODE":135.8794,"ARG_OF_PERICENTER":252.4971,"MEAN_ANOMALY":107.5754,"EPHEMERIS_TYPE":0,"CLASSIFICATION_TYPE":"U","NORAD_CAT_ID":54828,"ELEMENT_SET_NO":999,"REV_AT_EPOCH":17688,"BSTAR":1.7111808e-5,"MEAN_MOTION_DOT":2.8e-7,"MEAN_MOTION_DDOT":0},{"OBJECT_NAME":"VELOX-PII","OBJECT_ID":"2013-066Y","EPOCH":"2026-03-09T19:57:03.071520","MEAN_MOTION":14.92474173,"ECCENTRICITY":0.00523549,"INCLINATION":97.8641,"RA_OF_ASC_NODE":20.1898,"ARG_OF_PERICENTER":313.6731,"MEAN_ANOMALY":46.0154,"EPHEMERIS_TYPE":0,"CLASSIFICATION_TYPE":"U","NORAD_CAT_ID":39438,"ELEMENT_SET_NO":999,"REV_AT_EPOCH":66301,"BSTAR":0.00044125176,"MEAN_MOTION_DOT":4.587e-5,"MEAN_MOTION_DDOT":0}]
